[{"OBJECT_NAME":"TEVEL2-6","OBJECT_ID":"2025-052F","EPOCH":"2026-03-09T15:35:24.554400","MEAN_MOTION":15.30760889,"ECCENTRICITY":0.0004769,"INCLINATION":97.4016,"RA_OF_ASC_NODE":325.0381,"ARG_OF_PERICENTER":95.6604,"MEAN_ANOMALY":264.5181,"EPHEMERIS_TYPE":0,"CLASSIFICATION_TYPE":"U","NORAD_CAT_ID":63215,"ELEMENT_SET_NO":999,"REV_AT_EPOCH":5486,"BSTAR":0.00070909,"MEAN_MOTION_DOT":0.00021046,"MEAN_MOTION_DDOT":0},{"OBJECT_NAME":"STARLINK-35632","OBJECT_ID":"2025-237R","EPOCH":"2026-03-09T04:46:11.045280","MEAN_MOTION":15.30186129,"ECCENTRICITY":0.00010653,"INCLINATION":53.1611,"RA_OF_ASC_NODE":42.0282,"ARG_OF_PERICENTER":112.3321,"MEAN_ANOMALY":247.7793,"EPHEMERIS_TYPE":0,"CLASSIFICATION_TYPE":"U","NORAD_CAT_ID":66129,"ELEMENT_SET_NO":999,"REV_AT_EPOCH":2253,"BSTAR":0.00090964705,"MEAN_MOTION_DOT":0.00026667,"MEAN_MOTION_DDOT":0}]
